NORAD_CAT_ID,OBJECT_NAME,OBJECT_TYPE,EPOCH,MEAN_MOTION,ECCENTRICITY,INCLINATION,RA_OF_ASC_NODE,ARG_OF_PERICENTER,MEAN_ANOMALY,BSTAR,MEAN_MOTION_DOT,MEAN_MOTION_DDOT,TLE_LINE0,TLE_LINE1,TLE_LINE2,SEMIMAJOR_AXIS,PERIOD,APOGEE,PERIGEE,DECAYED
52607.0,STARLINK-3947,PAYLOAD,2022-05-28 20:25:47,15.68767833,0.0002195,53.215,10.3065,133.5529,226.5672,-0.0037862,-0.00420182,0.0,0 STARLINK-3947,1 52607U 22052K   22148.85124943 -.00420182  00000-0 -37862-2 0  9991,2 52607  53.2150  10.3065 0002195 133.5529 226.5672 15.68767833  2217,6740.561,91.792,363.906,360.947,0.0
52607.0,STARLINK-3947,PAYLOAD,2022-05-29 04:00:00,15.67725145,0.0001059,53.2171,8.738,116.4492,225.1804,-0.0082083,-0.00829764,0.0,0 STARLINK-3947,1 52607U 22052K   22149.16667824 -.00829764  00000-0 -82083-2 0  9990,2 52607  53.2171   8.7380 0001059 116.4492 225.1804 15.67725145  2635,6743.55,91.853,366.129,364.7,0.0
52607.0,STARLINK-3947,PAYLOAD,2022-05-29 14:00:01,15.66978947,0.0001240999999999,53.2174,6.6893,101.2004,72.7995,-0.0084578,-0.00829328,0.0,0 STARLINK-3947,1 52607U 22052K   22149.58334491 -.00829328  00000-0 -84578-2 0  9994,2 52607  53.2174   6.6893 0001241 101.2004  72.7995 15.66978947  1307,6745.69,91.897,368.392,366.718,0.0
52607.0,STARLINK-3947,PAYLOAD,2022-05-29 20:54:55,15.67019649,0.0001324,53.2141,5.2935,99.5007,260.616,-0.0036492,-0.00378802,0.0,0 STARLINK-3947,1 52607U 22052K   22149.87147308 -.00378802  00000-0 -36492-2 0  9993,2 52607  53.2141   5.2935 0001324  99.5007 260.6160 15.67019649  2373,6745.574000000001,91.894,368.332,366.545,0.0
52607.0,STARLINK-3947,PAYLOAD,2022-05-30 03:02:29,15.66505982,0.0001946,53.2139,4.0433,116.0469,244.0749,-0.0040952,-0.00414547,0.0,0 STARLINK-3947,1 52607U 22052K   22150.12672534 -.00414547  00000-0 -40952-2 0  9990,2 52607  53.2139   4.0433 0001946 116.0469 244.0749 15.66505982  2780,6747.0480000000025,91.924,370.226,367.6,0.0
52607.0,STARLINK-3947,PAYLOAD,2022-05-30 12:00:00,15.65335533,0.000111,53.2174,2.1945,103.852,201.417,-0.0090054,-0.00826344,0.0,0 STARLINK-3947,1 52607U 22052K   22150.50001157 -.00826344  00000-0 -90054-2 0  9999,2 52607  53.2174   2.1945 0001110 103.8520 201.4170 15.65335533  2845,6750.411,91.993,373.025,371.527,0.0
52607.0,STARLINK-3947,PAYLOAD,2022-05-30 14:00:01,15.6518677,0.0001042,53.2176,1.7867,96.2639,318.8509,-0.0090571,-0.00826129,0.0,0 STARLINK-3947,1 52607U 22052K   22150.58334491 -.00826129  00000-0 -90571-2 0  9992,2 52607  53.2176   1.7867 0001042  96.2639 318.8509 15.65186770  1301,6750.839,92.002,373.407,372.0,0.0
52607.0,STARLINK-3947,PAYLOAD,2022-05-30 22:00:00,15.64591929,0.0001183,53.2175,0.1574,82.2547,51.7955,-0.0093157,-0.00829375,0.0,0 STARLINK-3947,1 52607U 22052K   22150.91667824 -.00829375  00000-0 -93157-2 0  9997,2 52607  53.2175   0.1574 0001183  82.2547  51.7955 15.64591929  1300,6752.55,92.037,375.213,373.616,0.0
52607.0,STARLINK-3947,PAYLOAD,2022-05-31 06:00:02,15.63996418,0.0001262999999999,53.2173,358.5262,105.2239,107.1122,-0.0095708,-0.00843823,0.0,0 STARLINK-3947,1 52607U 22052K   22151.25002315 -.00843823  00000-0 -95708-2 0  9991,2 52607  53.2173 358.5262 0001263 105.2239 107.1122 15.63996418  1308,6754.264,92.072,376.982,375.276,0.0
52607.0,STARLINK-3947,PAYLOAD,2022-05-31 12:00:00,15.63547476,0.0001211,53.2171,357.3037,94.6182,85.8482,-0.0097135,-0.00841469,0.0,0 STARLINK-3947,1 52607U 22052K   22151.50001157 -.00841469  00000-0 -97135-2 0  9992,2 52607  53.2171 357.3037 0001211  94.6182  85.8482 15.63547476  3000,6755.556,92.098,378.24,376.603,0.0
52607.0,STARLINK-3947,PAYLOAD,2022-05-31 20:25:40,15.64806674,0.0006977,53.2136,355.6047,154.3094,205.827,0.00035065,0.00034439,0.0,0 STARLINK-3947,1 52607U 22052K   22151.85116395  .00034439  00000-0  35065-3 0  9995,2 52607  53.2136 355.6047 0006977 154.3094 205.8270 15.64806674  3056,6751.932,92.024,378.508,369.086,0.0
52607.0,STARLINK-3947,PAYLOAD,2022-05-31 22:00:00,15.62802209,0.000103,53.2174,355.2722,91.158,275.4011,-0.010013,-0.00842142,0.0,0 STARLINK-3947,1 52607U 22052K   22151.91667824 -.00842142  00000-0 -10013-1 0  9994,2 52607  53.2174 355.2722 0001030  91.1580 275.4011 15.62802209  1307,6757.704000000002,92.142,380.265,378.87300000000016,0.0
52607.0,STARLINK-3947,PAYLOAD,2022-06-01 02:34:38,15.63256089,5.570000000000001e-05,53.2144,354.3589,159.8647,200.2391,-0.0048651,-0.00431458,0.0,0 STARLINK-3947,1 52607U 22052K   22152.10739436 -.00431458  00000-0 -48651-2 0  9999,2 52607  53.2144 354.3589 0000557 159.8647 200.2391 15.63256089  3099,6756.396,92.115,378.637,377.885,0.0
52607.0,STARLINK-3947,PAYLOAD,2022-06-01 12:00:00,15.6175533,0.0001015,53.2174,352.426,91.7865,317.4248,-0.010375,-0.00837866,0.0,0 STARLINK-3947,1 52607U 22052K   22152.50001157 -.00837866  00000-0 -10375-1 0  9999,2 52607  53.2174 352.4260 0001015  91.7865 317.4248 15.61755330  3164,6760.724,92.204,383.275,381.902,0.0
52607.0,STARLINK-3947,PAYLOAD,2022-06-01 20:00:01,15.6116019,0.0001186,53.2173,350.8051,81.5459,42.4775,-0.010649,-0.00840126,0.0,0 STARLINK-3947,1 52607U 22052K   22152.83334491 -.00840126  00000-0 -10649-1 0  9992,2 52607  53.2173 350.8051 0001186  81.5459  42.4775 15.61160190  1306,6762.441999999999,92.239,385.109,383.505,0.0
52607.0,STARLINK-3947,PAYLOAD,2022-06-02 16:59:32,15.6046546,0.0001155,53.2147,346.569,107.6852,252.4289,-0.0055586,-0.00441636,0.0,0 STARLINK-3947,1 52607U 22052K   22153.70802059 -.00441636  00000-0 -55586-2 0  9992,2 52607  53.2147 346.5690 0001155 107.6852 252.4289 15.60465460  3347,6764.449000000001,92.28,387.095,385.532,0.0
52607.0,STARLINK-3947,PAYLOAD,2022-06-02 20:04:06,15.60297426,0.0001622,53.2154,345.9447,133.8176,226.2973,-0.005209,-0.00412719,0.0,0 STARLINK-3947,1 52607U 22052K   22153.83618058 -.00412719  00000-0 -52090-2 0  9997,2 52607  53.2154 345.9447 0001622 133.8176 226.2973 15.60297426  2991,6764.934,92.29,387.897,385.702,0.0
52607.0,STARLINK-3947,PAYLOAD,2022-06-02 21:36:25,15.60135952,0.000145,53.2148,345.6338,107.5435,252.5738,-0.0054544,-0.00428618,0.0,0 STARLINK-3947,1 52607U 22052K   22153.90029479 -.00428618  00000-0 -54544-2 0  9999,2 52607  53.2148 345.6338 0001450 107.5435 252.5738 15.60135952  3374,6765.401,92.3,388.247,386.285,0.0
52607.0,STARLINK-3947,PAYLOAD,2022-06-03 12:59:07,15.59885808,0.0002752,53.2157,342.5241,216.8957,143.1868,-0.0028561,-0.00228117,0.0,0 STARLINK-3947,1 52607U 22052K   22154.54105378 -.00228117  00000-0 -28561-2 0  9995,2 52607  53.2157 342.5241 0002752 216.8957 143.1868 15.59885808  3472,6766.124,92.314,389.851,386.127,0.0
52607.0,STARLINK-3947,PAYLOAD,2022-06-03 12:59:36,15.59262108,0.0001162,53.2161,342.5264,162.553,197.5524,-0.0048065,-0.00368051,0.0,0 STARLINK-3947,1 52607U 22052K   22154.54140023 -.00368051  00000-0 -48065-2 0  9994,2 52607  53.2161 342.5264 0001162 162.5530 197.5524 15.59262108  3474,6767.928000000001,92.351,390.58,389.007,0.0
52607.0,STARLINK-3947,PAYLOAD,2022-06-03 20:39:42,15.61332351,0.0011033,53.2157,340.9672,241.2983,118.6924,0.0040323,0.00365756,0.0,0 STARLINK-3947,1 52607U 22052K   22154.86090545  .00365756  00000-0  40323-2 0  9998,2 52607  53.2157 340.9672 0011033 241.2983 118.6924 15.61332351  3153,6761.945,92.229,391.27,376.349,0.0
52607.0,STARLINK-3947,PAYLOAD,2022-06-05 20:00:01,15.53997736,0.0001299,53.2175,331.4415,80.6966,165.1609,-0.013889,-0.00836401,0.0,0 STARLINK-3947,1 52607U 22052K   22156.83334491 -.00836401  00000-0 -13889-1 0  9996,2 52607  53.2175 331.4415 0001299  80.6966 165.1609 15.53997736  3839,6783.205,92.664,405.951,404.189,0.0
52607.0,STARLINK-3947,PAYLOAD,2022-06-05 22:00:00,15.53847151,0.000108,53.2174,331.0405,79.7975,272.5006,-0.013926,-0.00834162,0.0,0 STARLINK-3947,1 52607U 22052K   22156.91667824 -.00834162  00000-0 -13926-1 0  9998,2 52607  53.2174 331.0405 0001080  79.7975 272.5006 15.53847151  1309,6783.643,92.673,406.241,404.775,0.0
52607.0,STARLINK-3947,PAYLOAD,2022-06-06 14:00:01,15.52655313,0.0001219,53.2174,327.8325,71.6034,50.6028,-0.014595,-0.00836796,0.0,0 STARLINK-3947,1 52607U 22052K   22157.58334491 -.00836796  00000-0 -14595-1 0  9991,2 52607  53.2174 327.8325 0001219  71.6034  50.6028 15.52655313  1309,6787.114000000001,92.744,409.806,408.152,0.0
52607.0,STARLINK-3947,PAYLOAD,2022-06-06 20:00:01,15.52208745,0.0001155,53.2174,326.6332,94.8774,345.3031,-0.014857,-0.00838,0.0,0 STARLINK-3947,1 52607U 22052K   22157.83334491 -.00838000  00000-0 -14857-1 0  9990,2 52607  53.2174 326.6332 0001155  94.8774 345.3031 15.52208745  3999,6788.416,92.771,411.065,409.497,0.0
52607.0,STARLINK-3947,PAYLOAD,2022-06-06 22:00:00,15.52053409,0.0001245,53.2173,326.233,97.0294,89.056,-0.014747,-0.0082805,0.0,0 STARLINK-3947,1 52607U 22052K   22157.91667824 -.00828050  00000-0 -14747-1 0  9990,2 52607  53.2173 326.2330 0001245  97.0294  89.0560 15.52053409  1301,6788.869000000002,92.78,411.579,409.888,0.0
52607.0,STARLINK-3947,PAYLOAD,2022-06-07 14:00:01,15.50866129,0.0001166,53.2176,323.0341,85.0098,226.6794,-0.015611,-0.00838852,0.0,0 STARLINK-3947,1 52607U 22052K   22158.58334491 -.00838852  00000-0 -15611-1 0  9997,2 52607  53.2176 323.0341 0001166  85.0098 226.6794 15.50866129  1309,6792.333000000001,92.851,414.99,413.406,0.0
52607.0,STARLINK-3947,PAYLOAD,2022-06-07 20:00:01,15.50312457,0.0001323,53.2176,321.8383,87.7101,180.4251,-0.010385,-0.005581,0.0,0 STARLINK-3947,1 52607U 22052K   22158.83335648 -.00558100  00000-0 -10385-1 0  9998,2 52607  53.2176 321.8383 0001323  87.7101 180.4251 15.50312457  4140,6793.95,92.885,416.714,414.916,0.0
52607.0,STARLINK-3947,PAYLOAD,2022-06-07 22:00:00,15.50100878,0.0001124,53.2174,321.4397,91.6621,281.7807,-0.005657,-0.0031145,0.0,0 STARLINK-3947,1 52607U 22052K   22158.91667824 -.00311450  00000-0 -56570-2 0  9993,2 52607  53.2174 321.4397 0001124  91.6621 281.7807 15.50100878  1308,6794.568,92.897,417.197,415.67,0.0
